{
  "type": "FeatureCollection",
  "features": [
    {
      "type": "Feature",
      "properties": {
        "norad_id": 35033,
        "name": "COSMOS 2251 DEB",
        "group": "cosmos-2251-debris",
        "lat": 69.6254458151523,
        "lon": -51.70842749663483,
        "alt_km": 725.7809095697448,
        "timestamp": "2025-12-11T13:55:02.562160+00:00",
        "meta_object_name": "COSMOS 2251 DEB",
        "meta_object_id": "1993-036AGW",
        "meta_epoch": "2025-12-09T20:04:28.770240",
        "meta_mean_motion": 14.50906436,
        "meta_eccentricity": 0.00144326,
        "meta_inclination": 74.0258,
        "meta_ra_of_asc_node": 182.0397,
        "meta_arg_of_pericenter": 288.5729,
        "meta_mean_anomaly": 71.3864,
        "meta_ephemeris_type": 0,
        "meta_classification_type": "U",
        "meta_norad_cat_id": 35033,
        "meta_element_set_no": 999,
        "meta_rev_at_epoch": 65885,
        "meta_bstar": 0.0010175317,
        "meta_mean_motion_dot": 3.996e-05,
        "meta_mean_motion_ddot": 0,
        "tle_line1": "1 35033U 93036AGW 25343.83644410  .00003996  00000+0  10175-2 0  9994",
        "tle_line2": "2 35033  74.0258 182.0397 0014432 288.5729  71.3864 14.50906436658856"
      },
      "geometry": {
        "type": "Point",
        "coordinates": [
          -51.70842749663483,
          69.6254458151523
        ]
      }
    },
    {
      "type": "Feature",
      "properties": {
        "norad_id": 35038,
        "name": "COSMOS 2251 DEB",
        "group": "cosmos-2251-debris",
        "lat": 2.8669120940831405,
        "lon": -136.14841531077224,
        "alt_km": 879.3385251907412,
        "timestamp": "2025-12-11T13:55:02.562172+00:00",
        "meta_object_name": "COSMOS 2251 DEB",
        "meta_object_id": "1993-036AHB",
        "meta_epoch": "2025-12-09T21:12:51.178752",
        "meta_mean_motion": 14.25117767,
        "meta_eccentricity": 0.01138214,
        "meta_inclination": 74.1071,
        "meta_ra_of_asc_node": 47.7141,
        "meta_arg_of_pericenter": 32.4196,
        "meta_mean_anomaly": 86.2003,
        "meta_ephemeris_type": 0,
        "meta_classification_type": "U",
        "meta_norad_cat_id": 35038,
        "meta_element_set_no": 999,
        "meta_rev_at_epoch": 85528,
        "meta_bstar": 0.0019860831,
        "meta_mean_motion_dot": 4.964e-05,
        "meta_mean_motion_ddot": 0,
        "tle_line1": "1 35038U 93036AHB 25343.88392568  .00004964  00000+0  19861-2 0  9995",
        "tle_line2": "2 35038  74.1071  47.7141 0113821  32.4196  86.2003 14.25117767855284"
      },
      "geometry": {
        "type": "Point",
        "coordinates": [
          -136.14841531077224,
          2.8669120940831405
        ]
      }
    },
    {
      "type": "Feature",
      "properties": {
        "norad_id": 35043,
        "name": "COSMOS 2251 DEB",
        "group": "cosmos-2251-debris",
        "lat": 20.34365675360616,
        "lon": -138.26470401475353,
        "alt_km": 648.4878003315616,
        "timestamp": "2025-12-11T13:55:02.562183+00:00",
        "meta_object_name": "COSMOS 2251 DEB",
        "meta_object_id": "1993-036AHG",
        "meta_epoch": "2025-12-10T11:10:42.887424",
        "meta_mean_motion": 14.76758408,
        "meta_eccentricity": 0.00968597,
        "meta_inclination": 73.9504,
        "meta_ra_of_asc_node": 50.0569,
        "meta_arg_of_pericenter": 259.781,
        "meta_mean_anomaly": 99.243,
        "meta_ephemeris_type": 0,
        "meta_classification_type": "U",
        "meta_norad_cat_id": 35043,
        "meta_element_set_no": 999,
        "meta_rev_at_epoch": 67385,
        "meta_bstar": 0.0060386636,
        "meta_mean_motion_dot": 0.00045991,
        "meta_mean_motion_ddot": 0,
        "tle_line1": "1 35043U 93036AHG 25344.46577416  .00045991  00000+0  60387-2 0  9997",
        "tle_line2": "2 35043  73.9504  50.0569 0096859 259.7810  99.2430 14.76758408673855"
      },
      "geometry": {
        "type": "Point",
        "coordinates": [
          -138.26470401475353,
          20.34365675360616
        ]
      }
    },
    {
      "type": "Feature",
      "properties": {
        "norad_id": 35045,
        "name": "COSMOS 2251 DEB",
        "group": "cosmos-2251-debris",
        "lat": -51.15577597046041,
        "lon": 33.47486440868426,
        "alt_km": 767.1186468204469,
        "timestamp": "2025-12-11T13:55:02.562193+00:00",
        "meta_object_name": "COSMOS 2251 DEB",
        "meta_object_id": "1993-036AHJ",
        "meta_epoch": "2025-12-10T21:01:26.063040",
        "meta_mean_motion": 14.00378664,
        "meta_eccentricity": 0.0183537,
        "meta_inclination": 73.7197,
        "meta_ra_of_asc_node": 55.995,
        "meta_arg_of_pericenter": 298.261,
        "meta_mean_anomaly": 60.0102,
        "meta_ephemeris_type": 0,
        "meta_classification_type": "U",
        "meta_norad_cat_id": 35045,
        "meta_element_set_no": 999,
        "meta_rev_at_epoch": 84617,
        "meta_bstar": 0.00091974,
        "meta_mean_motion_dot": 1.549e-05,
        "meta_mean_motion_ddot": 0,
        "tle_line1": "1 35045U 93036AHJ 25344.87599610  .00001549  00000+0  91974-3 0  9992",
        "tle_line2": "2 35045  73.7197  55.9950 0183537 298.2610  60.0102 14.00378664846175"
      },
      "geometry": {
        "type": "Point",
        "coordinates": [
          33.47486440868426,
          -51.15577597046041
        ]
      }
    },
    {
      "type": "Feature",
      "properties": {
        "norad_id": 35060,
        "name": "COSMOS 2251 DEB",
        "group": "cosmos-2251-debris",
        "lat": 38.5277278612944,
        "lon": -100.34115168114478,
        "alt_km": 745.4494396724549,
        "timestamp": "2025-12-11T13:55:02.562203+00:00",
        "meta_object_name": "COSMOS 2251 DEB",
        "meta_object_id": "1993-036AHP",
        "meta_epoch": "2025-11-28T02:37:07.839264",
        "meta_mean_motion": 14.41547968,
        "meta_eccentricity": 0.00179641,
        "meta_inclination": 74.0363,
        "meta_ra_of_asc_node": 271.4275,
        "meta_arg_of_pericenter": 359.5881,
        "meta_mean_anomaly": 0.5257,
        "meta_ephemeris_type": 0,
        "meta_classification_type": "U",
        "meta_norad_cat_id": 35060,
        "meta_element_set_no": 999,
        "meta_rev_at_epoch": 87031,
        "meta_bstar": 0.0004076845,
        "meta_mean_motion_dot": 1.301e-05,
        "meta_mean_motion_ddot": 0,
        "tle_line1": "1 35060U 93036AHP 25332.10911851  .00001301  00000+0  40768-3 0  9998",
        "tle_line2": "2 35060  74.0363 271.4275 0017964 359.5881   0.5257 14.41547968870310"
      },
      "geometry": {
        "type": "Point",
        "coordinates": [
          -100.34115168114478,
          38.5277278612944
        ]
      }
    },
    {
      "type": "Feature",
      "properties": {
        "norad_id": 35061,
        "name": "COSMOS 2251 DEB",
        "group": "cosmos-2251-debris",
        "lat": 3.9739866118390728,
        "lon": 126.82576635086569,
        "alt_km": 682.3809750301652,
        "timestamp": "2025-12-11T13:55:02.562213+00:00",
        "meta_object_name": "COSMOS 2251 DEB",
        "meta_object_id": "1993-036AHQ",
        "meta_epoch": "2025-12-10T04:24:26.439840",
        "meta_mean_motion": 14.67788932,
        "meta_eccentricity": 0.00390241,
        "meta_inclination": 74.0462,
        "meta_ra_of_asc_node": 310.6593,
        "meta_arg_of_pericenter": 62.2963,
        "meta_mean_anomaly": 298.2158,
        "meta_ephemeris_type": 0,
        "meta_classification_type": "U",
        "meta_norad_cat_id": 35061,
        "meta_element_set_no": 999,
        "meta_rev_at_epoch": 88537,
        "meta_bstar": 0.0011530424,
        "meta_mean_motion_dot": 6.628e-05,
        "meta_mean_motion_ddot": 0,
        "tle_line1": "1 35061U 93036AHQ 25344.18363935  .00006628  00000+0  11530-2 0  9995",
        "tle_line2": "2 35061  74.0462 310.6593 0039024  62.2963 298.2158 14.67788932885374"
      },
      "geometry": {
        "type": "Point",
        "coordinates": [
          126.82576635086569,
          3.9739866118390728
        ]
      }
    },
    {
      "type": "Feature",
      "properties": {
        "norad_id": 35062,
        "name": "COSMOS 2251 DEB",
        "group": "cosmos-2251-debris",
        "lat": 54.68591328586357,
        "lon": 119.08765339237847,
        "alt_km": 736.5118126593825,
        "timestamp": "2025-12-11T13:55:02.562224+00:00",
        "meta_object_name": "COSMOS 2251 DEB",
        "meta_object_id": "1993-036AHR",
        "meta_epoch": "2025-12-10T15:42:45.436320",
        "meta_mean_motion": 14.22906612,
        "meta_eccentricity": 0.01275957,
        "meta_inclination": 74.0784,
        "meta_ra_of_asc_node": 96.9836,
        "meta_arg_of_pericenter": 97.3041,
        "meta_mean_anomaly": 264.2628,
        "meta_ephemeris_type": 0,
        "meta_classification_type": "U",
        "meta_norad_cat_id": 35062,
        "meta_element_set_no": 999,
        "meta_rev_at_epoch": 85469,
        "meta_bstar": 0.0028656551,
        "meta_mean_motion_dot": 6.986e-05,
        "meta_mean_motion_ddot": 0,
        "tle_line1": "1 35062U 93036AHR 25344.65469255  .00006986  00000+0  28657-2 0  9995",
        "tle_line2": "2 35062  74.0784  96.9836 0127595  97.3041 264.2628 14.22906612854697"
      },
      "geometry": {
        "type": "Point",
        "coordinates": [
          119.08765339237847,
          54.68591328586357
        ]
      }
    }
  ]
}